{
  "norad_id": 65899,
  "name": "STARLINK-35272",
  "history": [
    {
      "epoch": "2026-03-28T22:16:46.416000Z",
      "apogee_km": 475.7917428154069,
      "perigee_km": 474.5595172045314,
      "latitude_deg": 3.42613651733588e-05,
      "longitude_deg": 121.17310057342758,
      "height_km": 475.9830411878877,
      "semi_major_axis_km": 6853.312630009968,
      "eccentricity": 8.99e-05,
      "inclination_deg": 53.1589,
      "raan_deg": 281.7082,
      "arg_perigee_deg": 81.5007,
      "mean_anomaly_deg": 278.6096,
      "mean_motion_rev_day": 15.30213209
    },
    {
      "epoch": "2026-03-28T22:16:46.416864Z",
      "apogee_km": 475.79139716373084,
      "perigee_km": 474.55985688465535,
      "latitude_deg": 3.881173442217787e-05,
      "longitude_deg": 121.17310035393211,
      "height_km": 475.9830888486752,
      "semi_major_axis_km": 6853.312627024193,
      "eccentricity": 8.985e-05,
      "inclination_deg": 53.1589,
      "raan_deg": 281.7082,
      "arg_perigee_deg": 81.5007,
      "mean_anomaly_deg": 278.6096,
      "mean_motion_rev_day": 15.3021321
    },
    {
      "epoch": "2026-03-29T21:47:34.546272Z",
      "apogee_km": 476.10071065226475,
      "perigee_km": 474.3133585280448,
      "latitude_deg": 5.017202264704558e-06,
      "longitude_deg": 122.95647664487979,
      "height_km": 476.059916084428,
      "semi_major_axis_km": 6853.3440345901545,
      "eccentricity": 0.0001304,
      "inclination_deg": 53.1593,
      "raan_deg": 277.1578,
      "arg_perigee_deg": 87.1089,
      "mean_anomaly_deg": 273.0061,
      "mean_motion_rev_day": 15.30202691
    },
    {
      "epoch": "2026-03-30T05:37:50.444832Z",
      "apogee_km": 476.0617827406986,
      "perigee_km": 474.23579327534117,
      "latitude_deg": 5.257754617059784e-05,
      "longitude_deg": 3.550383460421061,
      "height_km": 476.03114292310016,
      "semi_major_axis_km": 6853.28578800802,
      "eccentricity": 0.00013322,
      "inclination_deg": 53.1588,
      "raan_deg": 275.6398,
      "arg_perigee_deg": 89.0268,
      "mean_anomaly_deg": 271.0886,
      "mean_motion_rev_day": 15.30222199
    },
    {
      "epoch": "2026-03-30T11:54:03.409920Z",
      "apogee_km": 476.575866803606,
      "perigee_km": 473.74942896282573,
      "latitude_deg": 3.293169850972181e-05,
      "longitude_deg": -91.97256283523404,
      "height_km": 475.9069140183648,
      "semi_major_axis_km": 6853.299647883216,
      "eccentricity": 0.00020621,
      "inclination_deg": 53.159,
      "raan_deg": 274.4284,
      "arg_perigee_deg": 83.8013,
      "mean_anomaly_deg": 276.3223,
      "mean_motion_rev_day": 15.30217557
    },
    {
      "epoch": "2026-03-30T22:52:25.878720Z",
      "apogee_km": 476.02957422687723,
      "perigee_km": 474.3939540108331,
      "latitude_deg": -6.0003526137966285e-05,
      "longitude_deg": 100.85930712934818,
      "height_km": 475.8241442724091,
      "semi_major_axis_km": 6853.348764118855,
      "eccentricity": 0.00011933,
      "inclination_deg": 53.1578,
      "raan_deg": 272.3046,
      "arg_perigee_deg": 69.5541,
      "mean_anomaly_deg": 290.5587,
      "mean_motion_rev_day": 15.30201107
    },
    {
      "epoch": "2026-03-31T02:00:32.247648Z",
      "apogee_km": 476.0041282087677,
      "perigee_km": 474.37591477500155,
      "latitude_deg": -5.2477113473511904e-05,
      "longitude_deg": 53.09542162709928,
      "height_km": 475.86688355054446,
      "semi_major_axis_km": 6853.327021491885,
      "eccentricity": 0.00011879,
      "inclination_deg": 53.1591,
      "raan_deg": 271.696,
      "arg_perigee_deg": 74.2264,
      "mean_anomaly_deg": 285.8867,
      "mean_motion_rev_day": 15.30208389
    },
    {
      "epoch": "2026-04-01T10:55:40.302912Z",
      "apogee_km": 475.6944315738774,
      "perigee_km": 474.6623222781118,
      "latitude_deg": -3.608528258217943e-05,
      "longitude_deg": -88.41335927228756,
      "height_km": 476.3454655080018,
      "semi_major_axis_km": 6853.315376925994,
      "eccentricity": 7.53e-05,
      "inclination_deg": 53.1572,
      "raan_deg": 265.3227,
      "arg_perigee_deg": 121.349,
      "mean_anomaly_deg": 238.7584,
      "mean_motion_rev_day": 15.30212289
    },
    {
      "epoch": "2026-04-02T18:16:40.886112Z",
      "apogee_km": 476.0964723251964,
      "perigee_km": 473.98075994898136,
      "latitude_deg": -1.615056918499134e-05,
      "longitude_deg": 153.9788213814884,
      "height_km": 476.0056732073658,
      "semi_major_axis_km": 6853.175616137089,
      "eccentricity": 0.00015436,
      "inclination_deg": 53.1585,
      "raan_deg": 259.2548,
      "arg_perigee_deg": 266.4334,
      "mean_anomaly_deg": 93.649,
      "mean_motion_rev_day": 15.30259099
    },
    {
      "epoch": "2026-04-03T17:47:30.452352Z",
      "apogee_km": 475.8143941221351,
      "perigee_km": 474.9467387982213,
      "latitude_deg": -3.2989126640679435e-05,
      "longitude_deg": 155.75630679041282,
      "height_km": 476.14153143096723,
      "semi_major_axis_km": 6853.5175664601775,
      "eccentricity": 6.33e-05,
      "inclination_deg": 53.157,
      "raan_deg": 254.7045,
      "arg_perigee_deg": 71.4993,
      "mean_anomaly_deg": 288.6076,
      "mean_motion_rev_day": 15.30144574
    },
    {
      "epoch": "2026-04-04T20:26:26.657088Z",
      "apogee_km": 475.8582733432031,
      "perigee_km": 474.5904014957796,
      "latitude_deg": -5.133639810751772e-05,
      "longitude_deg": 109.77027257865933,
      "height_km": 476.1034489571943,
      "semi_major_axis_km": 6853.361337419491,
      "eccentricity": 9.25e-05,
      "inclination_deg": 53.1581,
      "raan_deg": 249.5471,
      "arg_perigee_deg": 88.2616,
      "mean_anomaly_deg": 271.849,
      "mean_motion_rev_day": 15.30196896
    },
    {
      "epoch": "2026-04-05T13:41:01.052448Z",
      "apogee_km": 475.7183548658131,
      "perigee_km": 474.5417859751633,
      "latitude_deg": -2.14041675355931e-06,
      "longitude_deg": -152.91994615901572,
      "height_km": 476.0443809506952,
      "semi_major_axis_km": 6853.267070420488,
      "eccentricity": 8.584e-05,
      "inclination_deg": 53.157,
      "raan_deg": 246.2083,
      "arg_perigee_deg": 91.5579,
      "mean_anomaly_deg": 268.552,
      "mean_motion_rev_day": 15.30228468
    },
    {
      "epoch": "2026-04-05T19:57:13.576896Z",
      "apogee_km": 475.7872567985369,
      "perigee_km": 474.5232355766502,
      "latitude_deg": 1.0599593224092948e-05,
      "longitude_deg": 111.55907193265705,
      "height_km": 475.85315150373225,
      "semi_major_axis_km": 6853.292246187593,
      "eccentricity": 9.222e-05,
      "inclination_deg": 53.1579,
      "raan_deg": 244.997,
      "arg_perigee_deg": 71.5052,
      "mean_anomaly_deg": 288.6049,
      "mean_motion_rev_day": 15.30220036
    },
    {
      "epoch": "2026-04-07T15:50:43.146240Z",
      "apogee_km": 475.835060249914,
      "perigee_km": 474.60145630342504,
      "latitude_deg": 5.984984185129784e-05,
      "longitude_deg": 162.88943652302763,
      "height_km": 475.9805958712527,
      "semi_major_axis_km": 6853.35525827667,
      "eccentricity": 9e-05,
      "inclination_deg": 53.1586,
      "raan_deg": 236.5031,
      "arg_perigee_deg": 77.2518,
      "mean_anomaly_deg": 282.8584,
      "mean_motion_rev_day": 15.30198932
    },
    {
      "epoch": "2026-04-08T13:47:28.018176Z",
      "apogee_km": 475.7219136223666,
      "perigee_km": 474.5674097936362,
      "latitude_deg": 5.560331551997173e-05,
      "longitude_deg": -171.44741770094848,
      "height_km": 475.75551738762243,
      "semi_major_axis_km": 6853.281661708002,
      "eccentricity": 8.423e-05,
      "inclination_deg": 53.1592,
      "raan_deg": 232.2545,
      "arg_perigee_deg": 60.0877,
      "mean_anomaly_deg": 300.0208,
      "mean_motion_rev_day": 15.30223581
    },
    {
      "epoch": "2026-04-09T14:52:18.962688Z",
      "apogee_km": 476.12236960407336,
      "perigee_km": 474.24181884461814,
      "latitude_deg": -3.66268820000189e-05,
      "longitude_deg": 166.45650907468954,
      "height_km": 476.2479367830753,
      "semi_major_axis_km": 6853.3190942243455,
      "eccentricity": 0.0001372,
      "inclination_deg": 53.1595,
      "raan_deg": 227.4008,
      "arg_perigee_deg": 100.2877,
      "mean_anomaly_deg": 259.8278,
      "mean_motion_rev_day": 15.30211044
    },
    {
      "epoch": "2026-04-10T08:06:54.169344Z",
      "apogee_km": 475.9123114808608,
      "perigee_km": 474.46214807383876,
      "latitude_deg": 4.714613770954994e-06,
      "longitude_deg": -96.23620592266761,
      "height_km": 476.0864661066564,
      "semi_major_axis_km": 6853.3242297773495,
      "eccentricity": 0.0001058,
      "inclination_deg": 53.1584,
      "raan_deg": 224.0629,
      "arg_perigee_deg": 90.0824,
      "mean_anomaly_deg": 270.0298,
      "mean_motion_rev_day": 15.30209324
    },
    {
      "epoch": "2026-04-11T13:53:55.223232Z",
      "apogee_km": 476.2366937190509,
      "perigee_km": 474.19713559404863,
      "latitude_deg": -1.9920987083001452e-05,
      "longitude_deg": 170.02361198245674,
      "height_km": 475.8716247423736,
      "semi_major_axis_km": 6853.353914656549,
      "eccentricity": 0.0001488,
      "inclination_deg": 53.1596,
      "raan_deg": 218.3003,
      "arg_perigee_deg": 76.2095,
      "mean_anomaly_deg": 283.9071,
      "mean_motion_rev_day": 15.30199382
    },
    {
      "epoch": "2026-04-13T06:39:18.408960Z",
      "apogee_km": 476.8869225025883,
      "perigee_km": 473.3907923566794,
      "latitude_deg": 3.401162272994957e-06,
      "longitude_deg": -90.88708637669028,
      "height_km": 475.5627983437663,
      "semi_major_axis_km": 6853.275857429634,
      "eccentricity": 0.00025507,
      "inclination_deg": 53.1532,
      "raan_deg": 210.41,
      "arg_perigee_deg": 74.3452,
      "mean_anomaly_deg": 285.783,
      "mean_motion_rev_day": 15.30225525
    }
  ]
}